ONEWEB-0558             
1 56059U 23043P   24153.60591357  .00000055  00000+0  10149-3 0  9995
2 56059  87.9305  32.3981 0002373  82.6667 277.4737 13.21824864 59746
ONEWEB-0559             
1 56060U 23043Q   24153.59486713  .00000045  00000+0  77634-4 0  9996
2 56060  87.9304  32.3986 0002260  96.0905 264.0486 13.21826639 59757
ONEWEB-0566             
1 56061U 23043R   24153.58854986 -.00000053  00000+0 -15981-3 0  9994
2 56061  87.9301  32.4003 0002617  84.9419 275.2014 13.21827447 59735
ONEWEB-0568             
1 56062U 23043S   24153.55675473 -.00000011  00000+0 -62978-4 0  9997
2 56062  87.9118  17.1973 0001606  74.8143 285.3165 13.16592445 60863
ONEWEB-0574             
1 56063U 23043T   24153.58225469  .00000007  00000+0 -14790-4 0  9990
2 56063  87.9300  32.3966 0001954  77.6414 282.4938 13.21824522 59770
ONEWEB-0575             
1 56064U 23043U   24153.62643027  .00000043  00000+0  79122-4 0  9999
2 56064  87.9119  17.1922 0001293  94.1099 266.0180 13.16593738 60866
ONEWEB-0576             
1 56065U 23043V   24153.60741766  .00000096  00000+0  21827-3 0  9993
2 56065  87.9116  17.1937 0001443  76.9933 283.1359 13.16592496 60859
ONEWEB-0577             
1 56066U 23043W   24153.61375337  .00000088  00000+0  19779-3 0  9996
2 56066  87.9117  17.1916 0001165 104.6154 255.5106 13.16592775 60889
